H-2A R/B                
1 38341U 12025E   25307.86762281  .00004557  00000+0  42483-3 0  9990
2 38341  98.4526 260.1266 0045821   6.0472 354.1289 14.94018662729424
SHIJIAN-16 (SJ-16)      
1 39358U 13057A   25307.97628304  .00002691  00000+0  26912-3 0  9990
2 39358  74.9737  62.9852 0016104  55.1819 305.0881 14.91772349652757
SL-4 R/B                
1 39679U 14021B   25307.18689976  .00017691  00000+0  43525-3 0  9998
2 39679  51.6083 232.6087 0104907   3.7523 356.4223 15.35154677636811
ALOS-2                  
1 39766U 14029A   25307.98938624  .00002356  00000+0  32227-3 0  9997
2 39766  97.9238  43.3865 0001226 100.9864 259.1486 14.79464051618280
YAOGAN-29               
1 41038U 15069A   25307.95186367  .00000533  00000+0  72644-4 0  9996
2 41038  98.0262 330.9910 0002589  63.3925 296.7553 14.82815755537246
ASTRO-H (HITOMI)        
1 41337U 16012A   25307.73425715  .00003605  00000+0  21661-3 0  9991
2 41337  30.9989  88.7566 0009873 145.7208 214.4069 15.08991939533182
HXMT (HUIYAN)           
1 42758U 17034A   25307.98262441  .00007107  00000+0  37462-3 0  9993
2 42758  43.0154 354.6053 0032533 162.7951 197.4006 15.15603837463456
CZ-2C R/B               
1 43521U 18054D   25307.68672195  .00089781  00000+0  83395-3 0  9997
2 43521  35.1349  84.0310 0024835 125.0822 235.2242 15.65765498408918
SAOCOM 1A               
1 43641U 18076A   25307.98837774  .00000568  00000+0  77950-4 0  9990
2 43641  97.8872 132.9713 0001342  90.6405 269.4962 14.82146094382742
H-2A R/B                
1 43682U 18084L   25307.94195208  .00020546  00000+0  59012-3 0  9995
2 43682  98.8805 134.0393 0029364  97.8403 262.6171 15.35458467386449
SAOCOM 1B               
1 46265U 20059A   25307.95212979  .00000567  00000+0  77796-4 0  9997
2 46265  97.8860 132.0384 0001461  90.0263 270.1117 14.82148562280129
CSS (TIANHE)            
1 48274U 21035A   25307.90407964  .00031822  00000+0  38006-3 0  9997
2 48274  41.4667 252.5607 0006419 318.2351  41.7998 15.60323166257965
