CCSDS_OMM_VERS = 2.0
CREATION_DATE  = 
ORIGINATOR     = 

OBJECT_NAME    = H-2A R/B
OBJECT_ID      = 2012-025E
CENTER_NAME    = EARTH
REF_FRAME      = TEME
TIME_SYSTEM    = UTC
MEAN_ELEMENT_THEORY = SGP/SGP4

EPOCH          = 2025-11-03T20:49:22.610784
MEAN_MOTION    = 14.94018662
ECCENTRICITY   = .00458211
INCLINATION    = 98.4526
RA_OF_ASC_NODE = 260.1266
ARG_OF_PERICENTER = 6.0472
MEAN_ANOMALY   = 354.1289

EPHEMERIS_TYPE = 0
CLASSIFICATION_TYPE = U
NORAD_CAT_ID   = 38341
ELEMENT_SET_NO = 999
REV_AT_EPOCH   = 72942
BSTAR          = .42483119E-3
MEAN_MOTION_DOT = .4557E-4
MEAN_MOTION_DDOT = 0

CCSDS_OMM_VERS = 2.0
CREATION_DATE  = 
ORIGINATOR     = 

OBJECT_NAME    = SHIJIAN-16 (SJ-16)
OBJECT_ID      = 2013-057A
CENTER_NAME    = EARTH
REF_FRAME      = TEME
TIME_SYSTEM    = UTC
MEAN_ELEMENT_THEORY = SGP/SGP4

EPOCH          = 2025-11-03T23:25:50.854656
MEAN_MOTION    = 14.91772349
ECCENTRICITY   = .00161041
INCLINATION    = 74.9737
RA_OF_ASC_NODE = 62.9852
ARG_OF_PERICENTER = 55.1819
MEAN_ANOMALY   = 305.0881

EPHEMERIS_TYPE = 0
CLASSIFICATION_TYPE = U
NORAD_CAT_ID   = 39358
ELEMENT_SET_NO = 999
REV_AT_EPOCH   = 65275
BSTAR          = .26911702E-3
MEAN_MOTION_DOT = .2691E-4
MEAN_MOTION_DDOT = 0

CCSDS_OMM_VERS = 2.0
CREATION_DATE  = 
ORIGINATOR     = 

OBJECT_NAME    = SL-4 R/B
OBJECT_ID      = 2014-021B
CENTER_NAME    = EARTH
REF_FRAME      = TEME
TIME_SYSTEM    = UTC
MEAN_ELEMENT_THEORY = SGP/SGP4

EPOCH          = 2025-11-03T04:29:08.139264
MEAN_MOTION    = 15.35154677
ECCENTRICITY   = .01049078
INCLINATION    = 51.6083
RA_OF_ASC_NODE = 232.6087
ARG_OF_PERICENTER = 3.7523
MEAN_ANOMALY   = 356.4223

EPHEMERIS_TYPE = 0
CLASSIFICATION_TYPE = U
NORAD_CAT_ID   = 39679
ELEMENT_SET_NO = 999
REV_AT_EPOCH   = 63681
BSTAR          = .43525424E-3
MEAN_MOTION_DOT = .17691E-3
MEAN_MOTION_DDOT = 0

CCSDS_OMM_VERS = 2.0
CREATION_DATE  = 
ORIGINATOR     = 

OBJECT_NAME    = ALOS-2
OBJECT_ID      = 2014-029A
CENTER_NAME    = EARTH
REF_FRAME      = TEME
TIME_SYSTEM    = UTC
MEAN_ELEMENT_THEORY = SGP/SGP4

EPOCH          = 2025-11-03T23:44:42.971136
MEAN_MOTION    = 14.79464051
ECCENTRICITY   = .00012263
INCLINATION    = 97.9238
RA_OF_ASC_NODE = 43.3865
ARG_OF_PERICENTER = 100.9864
MEAN_ANOMALY   = 259.1486

EPHEMERIS_TYPE = 0
CLASSIFICATION_TYPE = U
NORAD_CAT_ID   = 39766
ELEMENT_SET_NO = 999
REV_AT_EPOCH   = 61828
BSTAR          = .32226816E-3
MEAN_MOTION_DOT = .2356E-4
MEAN_MOTION_DDOT = 0

CCSDS_OMM_VERS = 2.0
CREATION_DATE  = 
ORIGINATOR     = 

OBJECT_NAME    = YAOGAN-29
OBJECT_ID      = 2015-069A
CENTER_NAME    = EARTH
REF_FRAME      = TEME
TIME_SYSTEM    = UTC
MEAN_ELEMENT_THEORY = SGP/SGP4

EPOCH          = 2025-11-03T22:50:41.021088
MEAN_MOTION    = 14.82815755
ECCENTRICITY   = .0002589
INCLINATION    = 98.0262
RA_OF_ASC_NODE = 330.9910
ARG_OF_PERICENTER = 63.3925
MEAN_ANOMALY   = 296.7553

EPHEMERIS_TYPE = 0
CLASSIFICATION_TYPE = U
NORAD_CAT_ID   = 41038
ELEMENT_SET_NO = 999
REV_AT_EPOCH   = 53724
BSTAR          = .7264439E-4
MEAN_MOTION_DOT = .533E-5
MEAN_MOTION_DDOT = 0

CCSDS_OMM_VERS = 2.0
CREATION_DATE  = 
ORIGINATOR     = 

OBJECT_NAME    = ASTRO-H (HITOMI)
OBJECT_ID      = 2016-012A
CENTER_NAME    = EARTH
REF_FRAME      = TEME
TIME_SYSTEM    = UTC
MEAN_ELEMENT_THEORY = SGP/SGP4

EPOCH          = 2025-11-03T17:37:19.817760
MEAN_MOTION    = 15.08991939
ECCENTRICITY   = .00098739
INCLINATION    = 30.9989
RA_OF_ASC_NODE = 88.7566
ARG_OF_PERICENTER = 145.7208
MEAN_ANOMALY   = 214.4069

EPHEMERIS_TYPE = 0
CLASSIFICATION_TYPE = U
NORAD_CAT_ID   = 41337
ELEMENT_SET_NO = 999
REV_AT_EPOCH   = 53318
BSTAR          = .21661154E-3
MEAN_MOTION_DOT = .3605E-4
MEAN_MOTION_DDOT = 0

CCSDS_OMM_VERS = 2.0
CREATION_DATE  = 
ORIGINATOR     = 

OBJECT_NAME    = HXMT (HUIYAN)
OBJECT_ID      = 2017-034A
CENTER_NAME    = EARTH
REF_FRAME      = TEME
TIME_SYSTEM    = UTC
MEAN_ELEMENT_THEORY = SGP/SGP4

EPOCH          = 2025-11-03T23:34:58.749024
MEAN_MOTION    = 15.15603837
ECCENTRICITY   = .00325334
INCLINATION    = 43.0154
RA_OF_ASC_NODE = 354.6053
ARG_OF_PERICENTER = 162.7951
MEAN_ANOMALY   = 197.4006

EPHEMERIS_TYPE = 0
CLASSIFICATION_TYPE = U
NORAD_CAT_ID   = 42758
ELEMENT_SET_NO = 999
REV_AT_EPOCH   = 46345
BSTAR          = .37462267E-3
MEAN_MOTION_DOT = .7107E-4
MEAN_MOTION_DDOT = 0

CCSDS_OMM_VERS = 2.0
CREATION_DATE  = 
ORIGINATOR     = 

OBJECT_NAME    = CZ-2C R/B
OBJECT_ID      = 2018-054D
CENTER_NAME    = EARTH
REF_FRAME      = TEME
TIME_SYSTEM    = UTC
MEAN_ELEMENT_THEORY = SGP/SGP4

EPOCH          = 2025-11-03T16:28:52.776480
MEAN_MOTION    = 15.65765498
ECCENTRICITY   = .00248354
INCLINATION    = 35.1349
RA_OF_ASC_NODE = 84.0310
ARG_OF_PERICENTER = 125.0822
MEAN_ANOMALY   = 235.2242

EPHEMERIS_TYPE = 0
CLASSIFICATION_TYPE = U
NORAD_CAT_ID   = 43521
ELEMENT_SET_NO = 999
REV_AT_EPOCH   = 40891
BSTAR          = .83395414E-3
MEAN_MOTION_DOT = .89781E-3
MEAN_MOTION_DDOT = 0

CCSDS_OMM_VERS = 2.0
CREATION_DATE  = 
ORIGINATOR     = 

OBJECT_NAME    = SAOCOM 1A
OBJECT_ID      = 2018-076A
CENTER_NAME    = EARTH
REF_FRAME      = TEME
TIME_SYSTEM    = UTC
MEAN_ELEMENT_THEORY = SGP/SGP4

EPOCH          = 2025-11-03T23:43:15.836736
MEAN_MOTION    = 14.82146094
ECCENTRICITY   = .00013421
INCLINATION    = 97.8872
RA_OF_ASC_NODE = 132.9713
ARG_OF_PERICENTER = 90.6405
MEAN_ANOMALY   = 269.4962

EPHEMERIS_TYPE = 0
CLASSIFICATION_TYPE = U
NORAD_CAT_ID   = 43641
ELEMENT_SET_NO = 999
REV_AT_EPOCH   = 38274
BSTAR          = .77950237E-4
MEAN_MOTION_DOT = .568E-5
MEAN_MOTION_DDOT = 0

CCSDS_OMM_VERS = 2.0
CREATION_DATE  = 
ORIGINATOR     = 

OBJECT_NAME    = H-2A R/B
OBJECT_ID      = 2018-084L
CENTER_NAME    = EARTH
REF_FRAME      = TEME
TIME_SYSTEM    = UTC
MEAN_ELEMENT_THEORY = SGP/SGP4

EPOCH          = 2025-11-03T22:36:24.659712
MEAN_MOTION    = 15.35458467
ECCENTRICITY   = .00293643
INCLINATION    = 98.8805
RA_OF_ASC_NODE = 134.0393
ARG_OF_PERICENTER = 97.8403
MEAN_ANOMALY   = 262.6171

EPHEMERIS_TYPE = 0
CLASSIFICATION_TYPE = U
NORAD_CAT_ID   = 43682
ELEMENT_SET_NO = 999
REV_AT_EPOCH   = 38644
BSTAR          = .59011614E-3
MEAN_MOTION_DOT = .20546E-3
MEAN_MOTION_DDOT = 0

CCSDS_OMM_VERS = 2.0
CREATION_DATE  = 
ORIGINATOR     = 

OBJECT_NAME    = SAOCOM 1B
OBJECT_ID      = 2020-059A
CENTER_NAME    = EARTH
REF_FRAME      = TEME
TIME_SYSTEM    = UTC
MEAN_ELEMENT_THEORY = SGP/SGP4

EPOCH          = 2025-11-03T22:51:04.013856
MEAN_MOTION    = 14.82148562
ECCENTRICITY   = .00014611
INCLINATION    = 97.8860
RA_OF_ASC_NODE = 132.0384
ARG_OF_PERICENTER = 90.0263
MEAN_ANOMALY   = 270.1117

EPHEMERIS_TYPE = 0
CLASSIFICATION_TYPE = U
NORAD_CAT_ID   = 46265
ELEMENT_SET_NO = 999
REV_AT_EPOCH   = 28012
BSTAR          = .7779643E-4
MEAN_MOTION_DOT = .567E-5
MEAN_MOTION_DDOT = 0

CCSDS_OMM_VERS = 2.0
CREATION_DATE  = 
ORIGINATOR     = 

OBJECT_NAME    = CSS (TIANHE)
OBJECT_ID      = 2021-035A
CENTER_NAME    = EARTH
REF_FRAME      = TEME
TIME_SYSTEM    = UTC
MEAN_ELEMENT_THEORY = SGP/SGP4

EPOCH          = 2025-11-03T21:41:52.480896
MEAN_MOTION    = 15.60323166
ECCENTRICITY   = .00064197
INCLINATION    = 41.4667
RA_OF_ASC_NODE = 252.5607
ARG_OF_PERICENTER = 318.2351
MEAN_ANOMALY   = 41.7998

EPHEMERIS_TYPE = 0
CLASSIFICATION_TYPE = U
NORAD_CAT_ID   = 48274
ELEMENT_SET_NO = 999
REV_AT_EPOCH   = 25796
BSTAR          = .38006417E-3
MEAN_MOTION_DOT = .31822E-3
MEAN_MOTION_DDOT = 0

